NORAD_CAT_ID,OBJECT_NAME,OBJECT_TYPE,EPOCH,MEAN_MOTION,ECCENTRICITY,INCLINATION,RA_OF_ASC_NODE,ARG_OF_PERICENTER,MEAN_ANOMALY,BSTAR,MEAN_MOTION_DOT,MEAN_MOTION_DDOT,TLE_LINE0,TLE_LINE1,TLE_LINE2,SEMIMAJOR_AXIS,PERIOD,APOGEE,PERIGEE,DECAYED
50192.0,STARLINK-3259,PAYLOAD,2024-04-18 09:53:32,15.08837104,0.0001426,53.2162,97.8962,95.2423,264.8732,0.00010332,1.357e-05,0.0,0 STARLINK-3259,1 50192U 21125AN  24109.41218533  .00001357  00000-0  10332-3 0  9999,2 50192  53.2162  97.8962 0001426  95.2423 264.8732 15.08837104132529,6917.889,95.438,540.741,538.768,0.0
50192.0,STARLINK-3259,PAYLOAD,2024-04-19 04:58:10,15.08842148,0.0001373,53.2157,94.3275,100.2756,259.8391,0.00030615,4.588e-05,0.0,0 STARLINK-3259,1 50192U 21125AN  24110.20706705  .00004588  00000-0  30615-3 0  9996,2 50192  53.2157  94.3275 0001373 100.2756 259.8391 15.08842148129557,6917.874,95.437,540.689,538.789,0.0
50192.0,STARLINK-3259,PAYLOAD,2024-04-19 08:08:56,15.0884551,0.0001387,53.2159,93.7327,98.8056,261.3093,0.00035481,5.364e-05,0.0,0 STARLINK-3259,1 50192U 21125AN  24110.33954623  .00005364  00000-0  35481-3 0  9993,2 50192  53.2159  93.7327 0001387  98.8056 261.3093 15.08845510132669,6917.864,95.437,540.688,538.769,0.0
50192.0,STARLINK-3259,PAYLOAD,2024-04-20 04:48:56,15.08862431,0.0001448,53.2164,89.8669,91.0955,269.0203,0.00049297,7.571e-05,0.0,0 STARLINK-3259,1 50192U 21125AN  24111.20065636  .00007571  00000-0  49297-3 0  9999,2 50192  53.2164  89.8669 0001448  91.0955 269.0203 15.08862431129701,6917.812,95.436,540.679,538.675,0.0
50192.0,STARLINK-3259,PAYLOAD,2024-04-20 07:59:42,15.08867486,0.0001472,53.2164,89.2712,90.4089,269.7072,0.00058723,9.077e-05,0.0,0 STARLINK-3259,1 50192U 21125AN  24111.33313355  .00009077  00000-0  58723-3 0  9994,2 50192  53.2164  89.2712 0001472  90.4089 269.7072 15.08867486132814,6917.796,95.436,540.68,538.643,0.0
50192.0,STARLINK-3259,PAYLOAD,2024-04-21 04:39:44,15.08824677,0.0001324,53.2162,85.4055,167.038,193.0646,-0.00038638,-6.429e-05,0.0,0 STARLINK-3259,1 50192U 21125AN  24112.19426215 -.00006429  00000-0 -38638-3 0  9992,2 50192  53.2162  85.4055 0001324 167.0380 193.0646 15.08824677129852,6917.927,95.439,540.708,538.876,0.0
50192.0,STARLINK-3259,PAYLOAD,2024-04-22 04:30:32,15.08849851,0.0001335,53.2175,80.943,101.5967,258.5175,0.0012407,0.00019518,0.0,0 STARLINK-3259,1 50192U 21125AN  24113.18787247  .00019518  00000-0  12407-2 0  9993,2 50192  53.2175  80.9430 0001335 101.5967 258.5175 15.08849851130003,6917.85,95.437,540.639,538.792,0.0
50192.0,STARLINK-3259,PAYLOAD,2024-04-23 04:21:18,15.08845114,0.0001615,53.2166,76.4862,158.0579,202.0482,0.00029586,4.424e-05,0.0,0 STARLINK-3259,1 50192U 21125AN  24114.18146884  .00004424  00000-0  29586-3 0  9997,2 50192  53.2166  76.4862 0001615 158.0579 202.0482 15.08845114130158,6917.865,95.437,540.847,538.613,0.0
50192.0,STARLINK-3259,PAYLOAD,2024-04-23 07:32:05,15.08845384,0.0001385,53.2168,75.8929,150.1385,209.9686,0.00027569,4.103e-05,0.0,0 STARLINK-3259,1 50192U 21125AN  24114.31395009  .00004103  00000-0  27569-3 0  9990,2 50192  53.2168  75.8929 0001385 150.1385 209.9686 15.08845384133265,6917.864,95.437,540.687,538.771,0.0
50192.0,STARLINK-3259,PAYLOAD,2024-04-23 21:50:33,15.08837411,0.0001189,53.2173,73.2138,123.7104,236.4001,5.4899e-05,5.86e-06,0.0,0 STARLINK-3259,1 50192U 21125AN  24114.91011250  .00000586  00000-0  54899-4 0  9997,2 50192  53.2173  73.2138 0001189 123.7104 236.4001 15.08837411133350,6917.888,95.438,540.576,538.931,0.0
50192.0,STARLINK-3259,PAYLOAD,2024-04-24 02:36:42,15.08848052,0.0001007,53.217,72.3222,92.6102,267.5005,-4.0385e-05,-9.31e-06,0.0,0 STARLINK-3259,1 50192U 21125AN  24115.10882844 -.00000931  00000-0 -40385-4 0  9995,2 50192  53.2170  72.3222 0001007  92.6102 267.5005 15.08848052130294,6917.856,95.437,540.417,539.024,0.0
50192.0,STARLINK-3259,PAYLOAD,2024-04-24 04:12:05,15.08851551,0.0001232,53.2179,72.0239,110.8579,249.2545,3.2218e-05,2.25e-06,0.0,0 STARLINK-3259,1 50192U 21125AN  24115.17506588  .00000225  00000-0  32218-4 0  9990,2 50192  53.2179  72.0239 0001232 110.8579 249.2545 15.08851551133397,6917.845,95.437,540.562,538.858,0.0
50192.0,STARLINK-3259,PAYLOAD,2024-04-25 04:02:53,15.08837565,0.0001196,53.2181,67.5637,90.3754,269.7375,0.00011627,1.563e-05,0.0,0 STARLINK-3259,1 50192U 21125AN  24116.16867336  .00001563  00000-0  11627-3 0  9997,2 50192  53.2181  67.5637 0001196  90.3754 269.7375 15.08837565130458,6917.888,95.438,540.58,538.925,0.0
50192.0,STARLINK-3259,PAYLOAD,2024-04-26 13:25:57,15.08861252,0.0001151,53.2179,61.3249,95.2006,264.9117,0.00015885,2.243e-05,0.0,0 STARLINK-3259,1 50192U 21125AN  24117.55969682  .00002243  00000-0  15885-3 0  9994,2 50192  53.2179  61.3249 0001151  95.2006 264.9117 15.08861252130665,6917.815,95.436,540.477,538.884,0.0
50192.0,STARLINK-3259,PAYLOAD,2024-04-26 21:22:55,15.08827545,0.000136,53.2177,59.8361,87.7865,272.3283,1.9869e-05,2.8e-07,0.0,0 STARLINK-3259,1 50192U 21125AN  24117.89092424  .00000028  00000-0  19869-4 0  9998,2 50192  53.2177  59.8361 0001360  87.7865 272.3283 15.08827545130711,6917.918,95.438,540.724,538.843,0.0
50192.0,STARLINK-3259,PAYLOAD,2024-04-27 03:44:27,15.08841175,0.0001312,53.218,58.645,95.4011,264.713,0.00013202,1.814e-05,0.0,0 STARLINK-3259,1 50192U 21125AN  24118.15587407  .00001814  00000-0  13202-3 0  9996,2 50192  53.2180  58.6450 0001312  95.4011 264.7130 15.08841175130752,6917.877,95.437,540.649,538.834,0.0
50192.0,STARLINK-3259,PAYLOAD,2024-04-27 13:16:45,15.08858353,0.0001451,53.2188,56.8608,76.0061,284.1092,0.00036161,5.475e-05,0.0,0 STARLINK-3259,1 50192U 21125AN  24118.55330317  .00005475  00000-0  36161-3 0  9992,2 50192  53.2188  56.8608 0001451  76.0061 284.1092 15.08858353130815,6917.824,95.436,540.693,538.686,0.0
50192.0,STARLINK-3259,PAYLOAD,2024-04-28 05:10:38,15.08828856,0.0001327,53.2172,53.884,98.587,261.5272,-0.00014232,-2.551e-05,0.0,0 STARLINK-3259,1 50192U 21125AN  24119.21572076 -.00002551  00000-0 -14232-3 0  9995,2 50192  53.2172  53.8840 0001327  98.5870 261.5272 15.08828856130917,6917.914,95.438,540.697,538.861,0.0
50192.0,STARLINK-3259,PAYLOAD,2024-04-28 13:07:33,15.08836746,0.000159,53.2199,52.4002,94.0011,266.1163,-2.3424e-06,-3.25e-06,0.0,0 STARLINK-3259,1 50192U 21125AN  24119.54691922 -.00000325  00000-0 -23424-5 0  9995,2 50192  53.2199  52.4002 0001590  94.0011 266.1163 15.08836746134057,6917.89,95.438,540.855,538.655,0.0
50192.0,STARLINK-3259,PAYLOAD,2024-04-29 05:01:25,15.08841185,0.0001452,53.2185,49.426,99.0617,261.054,0.00016792,2.386e-05,0.0,0 STARLINK-3259,1 50192U 21125AN  24120.20931838  .00002386  00000-0  16792-3 0  9998,2 50192  53.2185  49.4260 0001452  99.0617 261.0540 15.08841185134155,6917.877,95.437,540.746,538.737,0.0
50192.0,STARLINK-3259,PAYLOAD,2024-04-29 19:19:53,15.08834101,0.0001351,53.2175,46.7491,88.1103,272.0044,0.00030922,4.636e-05,0.0,0 STARLINK-3259,1 50192U 21125AN  24120.80548269  .00004636  00000-0  30922-3 0  9997,2 50192  53.2175  46.7491 0001351  88.1103 272.0044 15.08834101131155,6917.898,95.438,540.698,538.829,0.0
50192.0,STARLINK-3259,PAYLOAD,2024-04-29 22:30:39,15.08830123,0.0001333,53.2191,46.1538,93.1196,266.9948,0.00029784,4.454e-05,0.0,0 STARLINK-3259,1 50192U 21125AN  24120.93796052  .00004454  00000-0  29784-3 0  9998,2 50192  53.2191  46.1538 0001333  93.1196 266.9948 15.08830123134267,6917.911,95.438,540.698,538.853,0.0
50192.0,STARLINK-3259,PAYLOAD,2024-04-30 04:52:11,15.08844751,0.0001514,53.2196,44.9628,88.4957,271.6209,0.00025981,3.85e-05,0.0,0 STARLINK-3259,1 50192U 21125AN  24121.20291273  .00003850  00000-0  25981-3 0  9998,2 50192  53.2196  44.9628 0001514  88.4957 271.6209 15.08844751131218,6917.866,95.437,540.778,538.684,0.0
50192.0,STARLINK-3259,PAYLOAD,2024-04-30 22:21:26,15.08841932,0.0001119,53.218,41.6913,115.8467,244.264,0.00014589,2.035e-05,0.0,0 STARLINK-3259,1 50192U 21125AN  24121.93155400  .00002035  00000-0  14589-3 0  9995,2 50192  53.2180  41.6913 0001119 115.8467 244.2640 15.08841932134412,6917.874,95.437,540.514,538.965,0.0
50192.0,STARLINK-3259,PAYLOAD,2024-05-01 01:32:12,15.08839922,0.000118,53.218,41.0975,88.2444,271.8683,9.4962e-05,1.224e-05,0.0,0 STARLINK-3259,1 50192U 21125AN  24122.06403737  .00001224  00000-0  94962-4 0  9992,2 50192  53.2180  41.0975 0001180  88.2444 271.8683 15.08839922131348,6917.881,95.438,540.562,538.929,0.0
50192.0,STARLINK-3259,PAYLOAD,2024-05-01 11:04:31,15.0884727,0.0001218,53.2189,39.3156,89.3617,270.7515,8.4246e-05,1.053e-05,0.0,0 STARLINK-3259,1 50192U 21125AN  24122.46147156  .00001053  00000-0  84246-4 0  9990,2 50192  53.2189  39.3156 0001218  89.3617 270.7515 15.08847270134490,6917.858,95.437,540.566,538.881,0.0
50192.0,STARLINK-3259,PAYLOAD,2024-05-01 19:01:27,15.08835737,0.0001262,53.2201,37.8375,91.0008,269.1129,6.4752e-05,7.43e-06,0.0,0 STARLINK-3259,1 50192U 21125AN  24122.79268071  .00000743  00000-0  64752-4 0  9991,2 50192  53.2201  37.8375 0001262  91.0008 269.1129 15.08835737134548,6917.893,95.438,540.631,538.885,0.0
50192.0,STARLINK-3259,PAYLOAD,2024-05-02 02:58:23,15.08839251,0.000121,53.2198,36.3469,83.0588,277.0542,4.8831e-05,4.89e-06,0.0,0 STARLINK-3259,1 50192U 21125AN  24123.12387853  .00000489  00000-0  48831-4 0  9996,2 50192  53.2198  36.3469 0001210  83.0588 277.0542 15.08839251131503,6917.883,95.438,540.585,538.911,0.0
50192.0,STARLINK-3259,PAYLOAD,2024-05-02 10:55:17,15.08857347,0.0001747,53.2198,34.8598,63.3395,296.7776,1.0429e-05,-1.22e-06,0.0,0 STARLINK-3259,1 50192U 21125AN  24123.45506676 -.00000122  00000-0  10429-4 0  9995,2 50192  53.2198  34.8598 0001747  63.3395 296.7776 15.08857347131559,6917.827,95.436,540.901,538.484,0.0
50192.0,STARLINK-3259,PAYLOAD,2024-05-02 17:16:51,15.08843568,0.0002254,53.2192,33.6694,87.4802,272.6448,0.00011566,1.553e-05,0.0,0 STARLINK-3259,1 50192U 21125AN  24123.72003505  .00001553  00000-0  11566-3 0  9998,2 50192  53.2192  33.6694 0002254  87.4802 272.6448 15.08843568131594,6917.869,95.437,541.294,538.175,0.0
